CCSDS_OMM_VERS = 2.0
CREATION_DATE  = 
ORIGINATOR     = 

OBJECT_NAME    = SL-3 R/B
OBJECT_ID      = 1982-079B
CENTER_NAME    = EARTH
REF_FRAME      = TEME
TIME_SYSTEM    = UTC
MEAN_ELEMENT_THEORY = SGP/SGP4

EPOCH          = 2026-02-19T21:08:58.062912
MEAN_MOTION    = 15.24507930
ECCENTRICITY   = .00243353
INCLINATION    = 81.1452
RA_OF_ASC_NODE = 214.0994
ARG_OF_PERICENTER = 225.3491
MEAN_ANOMALY   = 134.5759

EPHEMERIS_TYPE = 0
CLASSIFICATION_TYPE = U
NORAD_CAT_ID   = 13403
ELEMENT_SET_NO = 999
REV_AT_EPOCH   = 37498
BSTAR          = .22855617E-3
MEAN_MOTION_DOT = .5691E-4
MEAN_MOTION_DDOT = 0

CCSDS_OMM_VERS = 2.0
CREATION_DATE  = 
ORIGINATOR     = 

OBJECT_NAME    = SL-14 R/B
OBJECT_ID      = 1982-092B
CENTER_NAME    = EARTH
REF_FRAME      = TEME
TIME_SYSTEM    = UTC
MEAN_ELEMENT_THEORY = SGP/SGP4

EPOCH          = 2026-02-19T19:37:28.952544
MEAN_MOTION    = 14.86646260
ECCENTRICITY   = .00203614
INCLINATION    = 82.5711
RA_OF_ASC_NODE = 158.1111
ARG_OF_PERICENTER = 4.9673
MEAN_ANOMALY   = 112.1018

EPHEMERIS_TYPE = 0
CLASSIFICATION_TYPE = U
NORAD_CAT_ID   = 13553
ELEMENT_SET_NO = 999
REV_AT_EPOCH   = 32627
BSTAR          = .52624193E-4
MEAN_MOTION_DOT = .493E-5
MEAN_MOTION_DDOT = 0

CCSDS_OMM_VERS = 2.0
CREATION_DATE  = 
ORIGINATOR     = 

OBJECT_NAME    = SL-3 R/B
OBJECT_ID      = 1983-010B
CENTER_NAME    = EARTH
REF_FRAME      = TEME
TIME_SYSTEM    = UTC
MEAN_ELEMENT_THEORY = SGP/SGP4

EPOCH          = 2026-02-19T21:31:55.705728
MEAN_MOTION    = 15.45669684
ECCENTRICITY   = .00186147
INCLINATION    = 81.1041
RA_OF_ASC_NODE = 24.0478
ARG_OF_PERICENTER = 106.9828
MEAN_ANOMALY   = 253.3458

EPHEMERIS_TYPE = 0
CLASSIFICATION_TYPE = U
NORAD_CAT_ID   = 13819
ELEMENT_SET_NO = 999
REV_AT_EPOCH   = 35519
BSTAR          = .29634549E-3
MEAN_MOTION_DOT = .14424E-3
MEAN_MOTION_DDOT = 0

CCSDS_OMM_VERS = 2.0
CREATION_DATE  = 
ORIGINATOR     = 

OBJECT_NAME    = SL-3 R/B
OBJECT_ID      = 1983-075B
CENTER_NAME    = EARTH
REF_FRAME      = TEME
TIME_SYSTEM    = UTC
MEAN_ELEMENT_THEORY = SGP/SGP4

EPOCH          = 2026-02-19T22:15:14.511456
MEAN_MOTION    = 15.37942831
ECCENTRICITY   = .00198782
INCLINATION    = 97.6134
RA_OF_ASC_NODE = 54.8398
ARG_OF_PERICENTER = 295.9785
MEAN_ANOMALY   = 63.9411

EPHEMERIS_TYPE = 0
CLASSIFICATION_TYPE = U
NORAD_CAT_ID   = 14208
ELEMENT_SET_NO = 999
REV_AT_EPOCH   = 32742
BSTAR          = .27679903E-3
MEAN_MOTION_DOT = .1031E-3
MEAN_MOTION_DDOT = 0

CCSDS_OMM_VERS = 2.0
CREATION_DATE  = 
ORIGINATOR     = 

OBJECT_NAME    = COSMOS 1536
OBJECT_ID      = 1984-013A
CENTER_NAME    = EARTH
REF_FRAME      = TEME
TIME_SYSTEM    = UTC
MEAN_ELEMENT_THEORY = SGP/SGP4

EPOCH          = 2026-02-19T15:50:31.953984
MEAN_MOTION    = 15.23566052
ECCENTRICITY   = .0013843
INCLINATION    = 82.5459
RA_OF_ASC_NODE = 125.7676
ARG_OF_PERICENTER = 351.9696
MEAN_ANOMALY   = 8.1317

EPHEMERIS_TYPE = 0
CLASSIFICATION_TYPE = U
NORAD_CAT_ID   = 14699
ELEMENT_SET_NO = 999
REV_AT_EPOCH   = 26987
BSTAR          = .20583235E-3
MEAN_MOTION_DOT = .4965E-4
MEAN_MOTION_DDOT = 0

CCSDS_OMM_VERS = 2.0
CREATION_DATE  = 
ORIGINATOR     = 

OBJECT_NAME    = SL-14 R/B
OBJECT_ID      = 1984-027B
CENTER_NAME    = EARTH
REF_FRAME      = TEME
TIME_SYSTEM    = UTC
MEAN_ELEMENT_THEORY = SGP/SGP4

EPOCH          = 2026-02-19T15:31:06.645216
MEAN_MOTION    = 14.85957023
ECCENTRICITY   = .0018887
INCLINATION    = 82.5384
RA_OF_ASC_NODE = 261.9395
ARG_OF_PERICENTER = 37.1819
MEAN_ANOMALY   = 323.0702

EPHEMERIS_TYPE = 0
CLASSIFICATION_TYPE = U
NORAD_CAT_ID   = 14820
ELEMENT_SET_NO = 999
REV_AT_EPOCH   = 24495
BSTAR          = .41750771E-4
MEAN_MOTION_DOT = .39E-5
MEAN_MOTION_DDOT = 0

CCSDS_OMM_VERS = 2.0
CREATION_DATE  = 
ORIGINATOR     = 

OBJECT_NAME    = SL-8 R/B
OBJECT_ID      = 1985-006B
CENTER_NAME    = EARTH
REF_FRAME      = TEME
TIME_SYSTEM    = UTC
MEAN_ELEMENT_THEORY = SGP/SGP4

EPOCH          = 2026-02-19T20:20:48.610176
MEAN_MOTION    = 14.37773811
ECCENTRICITY   = .00191429
INCLINATION    = 74.0453
RA_OF_ASC_NODE = 293.9807
ARG_OF_PERICENTER = 215.5599
MEAN_ANOMALY   = 217.2304

EPHEMERIS_TYPE = 0
CLASSIFICATION_TYPE = U
NORAD_CAT_ID   = 15483
ELEMENT_SET_NO = 999
REV_AT_EPOCH   = 15146
BSTAR          = .62553342E-4
MEAN_MOTION_DOT = .162E-5
MEAN_MOTION_DDOT = 0

CCSDS_OMM_VERS = 2.0
CREATION_DATE  = 
ORIGINATOR     = 

OBJECT_NAME    = SL-12 R/B(2)
OBJECT_ID      = 1985-042D
CENTER_NAME    = EARTH
REF_FRAME      = TEME
TIME_SYSTEM    = UTC
MEAN_ELEMENT_THEORY = SGP/SGP4

EPOCH          = 2026-02-19T15:11:31.269120
MEAN_MOTION    = 14.21977308
ECCENTRICITY   = .0034243
INCLINATION    = 71.1080
RA_OF_ASC_NODE = 125.8789
ARG_OF_PERICENTER = 157.3988
MEAN_ANOMALY   = 354.3691

EPHEMERIS_TYPE = 0
CLASSIFICATION_TYPE = U
NORAD_CAT_ID   = 15772
ELEMENT_SET_NO = 999
REV_AT_EPOCH   = 11182
BSTAR          = .89383E-4
MEAN_MOTION_DOT = .151E-5
MEAN_MOTION_DDOT = 0

CCSDS_OMM_VERS = 2.0
CREATION_DATE  = 
ORIGINATOR     = 

OBJECT_NAME    = SL-14 R/B
OBJECT_ID      = 1985-069B
CENTER_NAME    = EARTH
REF_FRAME      = TEME
TIME_SYSTEM    = UTC
MEAN_ELEMENT_THEORY = SGP/SGP4

EPOCH          = 2026-02-19T21:44:48.358464
MEAN_MOTION    = 14.86410546
ECCENTRICITY   = .00172372
INCLINATION    = 82.5251
RA_OF_ASC_NODE = 41.6569
ARG_OF_PERICENTER = 249.8922
MEAN_ANOMALY   = 110.0440

EPHEMERIS_TYPE = 0
CLASSIFICATION_TYPE = U
NORAD_CAT_ID   = 15945
ELEMENT_SET_NO = 999
REV_AT_EPOCH   = 17019
BSTAR          = .52838552E-4
MEAN_MOTION_DOT = .491E-5
MEAN_MOTION_DDOT = 0

CCSDS_OMM_VERS = 2.0
CREATION_DATE  = 
ORIGINATOR     = 

OBJECT_NAME    = SL-16 R/B
OBJECT_ID      = 1985-097B
CENTER_NAME    = EARTH
REF_FRAME      = TEME
TIME_SYSTEM    = UTC
MEAN_ELEMENT_THEORY = SGP/SGP4

EPOCH          = 2026-02-19T20:27:24.095808
MEAN_MOTION    = 14.16594574
ECCENTRICITY   = .00097104
INCLINATION    = 71.0029
RA_OF_ASC_NODE = 178.1036
ARG_OF_PERICENTER = 280.0717
MEAN_ANOMALY   = 208.5094

EPHEMERIS_TYPE = 0
CLASSIFICATION_TYPE = U
NORAD_CAT_ID   = 16182
ELEMENT_SET_NO = 999
REV_AT_EPOCH   = 8470
BSTAR          = .62801416E-4
MEAN_MOTION_DOT = .77E-6
MEAN_MOTION_DDOT = 0

CCSDS_OMM_VERS = 2.0
CREATION_DATE  = 
ORIGINATOR     = 

OBJECT_NAME    = SL-14 R/B
OBJECT_ID      = 1986-006B
CENTER_NAME    = EARTH
REF_FRAME      = TEME
TIME_SYSTEM    = UTC
MEAN_ELEMENT_THEORY = SGP/SGP4

EPOCH          = 2026-02-19T14:50:50.565120
MEAN_MOTION    = 14.86790026
ECCENTRICITY   = .0075953
INCLINATION    = 82.5247
RA_OF_ASC_NODE = 276.7483
ARG_OF_PERICENTER = 333.7075
MEAN_ANOMALY   = 26.0293

EPHEMERIS_TYPE = 0
CLASSIFICATION_TYPE = U
NORAD_CAT_ID   = 16496
ELEMENT_SET_NO = 999
REV_AT_EPOCH   = 14652
BSTAR          = .57238E-4
MEAN_MOTION_DOT = .563E-5
MEAN_MOTION_DDOT = 0

CCSDS_OMM_VERS = 2.0
CREATION_DATE  = 
ORIGINATOR     = 

OBJECT_NAME    = COSMOS 1743
OBJECT_ID      = 1986-034A
CENTER_NAME    = EARTH
REF_FRAME      = TEME
TIME_SYSTEM    = UTC
MEAN_ELEMENT_THEORY = SGP/SGP4

EPOCH          = 2026-02-19T14:12:54.033120
MEAN_MOTION    = 15.57182279
ECCENTRICITY   = .0004008
INCLINATION    = 82.5303
RA_OF_ASC_NODE = 92.8048
ARG_OF_PERICENTER = 20.1791
MEAN_ANOMALY   = 339.9621

EPHEMERIS_TYPE = 0
CLASSIFICATION_TYPE = U
NORAD_CAT_ID   = 16719
ELEMENT_SET_NO = 999
REV_AT_EPOCH   = 17743
BSTAR          = .43308E-3
MEAN_MOTION_DOT = .31572E-3
MEAN_MOTION_DDOT = 0

