SL-3 R/B                
1 13403U 82079B   26050.88122758  .00005691  00000+0  22856-3 0  9997
2 13403  81.1452 214.0994 0024335 225.3491 134.5759 15.24507930374987
SL-14 R/B               
1 13553U 82092B   26050.81769621  .00000493  00000+0  52624-4 0  9999
2 13553  82.5711 158.1111 0020361   4.9673 112.1018 14.86646260326279
SL-3 R/B                
1 13819U 83010B   26050.89717252  .00014424  00000+0  29635-3 0  9990
2 13819  81.1041  24.0478 0018614 106.9828 253.3458 15.45669684355195
SL-3 R/B                
1 14208U 83075B   26050.92725129  .00010310  00000+0  27680-3 0  9998
2 14208  97.6134  54.8398 0019878 295.9785  63.9411 15.37942831327427
COSMOS 1536             
1 14699U 84013A   26050.66009206  .00004965  00000+0  20583-3 0  9991
2 14699  82.5459 125.7676 0013843 351.9696   8.1317 15.23566052269873
SL-14 R/B               
1 14820U 84027B   26050.64660469  .00000390  00000+0  41751-4 0  9993
2 14820  82.5384 261.9395 0018887  37.1819 323.0702 14.85957023244958
SL-8 R/B                
1 15483U 85006B   26050.84778484  .00000162  00000+0  62553-4 0  9996
2 15483  74.0453 293.9807 0019142 215.5599 217.2304 14.37773811151465
SL-12 R/B(2)            
1 15772U 85042D   26050.63300080  .00000151  00000+0  89383-4 0  9995
2 15772  71.1080 125.8789 0034243 157.3988 354.3691 14.21977308111824
SL-14 R/B               
1 15945U 85069B   26050.90611526  .00000491  00000+0  52839-4 0  9999
2 15945  82.5251  41.6569 0017237 249.8922 110.0440 14.86410546170193
SL-16 R/B               
1 16182U 85097B   26050.85236222  .00000077  00000+0  62801-4 0  9994
2 16182  71.0029 178.1036 0009710 280.0717 208.5094 14.16594574 84700
SL-14 R/B               
1 16496U 86006B   26050.61864080  .00000563  00000+0  57238-4 0  9994
2 16496  82.5247 276.7483 0075953 333.7075  26.0293 14.86790026146523
COSMOS 1743             
1 16719U 86034A   26050.59229205  .00031572  00000+0  43308-3 0  9990
2 16719  82.5303  92.8048 0004008  20.1791 339.9621 15.57182279177432
